STARLINK-1767_new
1 16345C 20062X   21326.11649189  .00009259  00000-0  62041-3 0  3260
2 16345  53.0520 218.2116 0001888  72.2198  82.1741 15.06386108    16
STARLINK-1767_old
1 26345C 20062X   21325.16753875  .00001926  00000-0  12913-3 0  3257
2 26345  53.0532 222.4722 0001918  68.8773 336.4978 15.06376987    14
